NORAD_CAT_ID,OBJECT_NAME,OBJECT_TYPE,EPOCH,MEAN_MOTION,ECCENTRICITY,INCLINATION,RA_OF_ASC_NODE,ARG_OF_PERICENTER,MEAN_ANOMALY,BSTAR,MEAN_MOTION_DOT,MEAN_MOTION_DDOT,TLE_LINE0,TLE_LINE1,TLE_LINE2,SEMIMAJOR_AXIS,PERIOD,APOGEE,PERIGEE,DECAYED
52124.0,STARLINK-3684,PAYLOAD,2022-06-09 22:00:00,15.15290241,0.0001633,53.2177,103.8401,54.3894,185.0903,-0.040694,-0.00721989,0.0,0 STARLINK-3684,1 52124U 22029AN  22160.91667824 -.00721989  00000-0 -40694-1 0  9995,2 52124  53.2177 103.8401 0001633  54.3894 185.0903 15.15290241  1304,6898.235,95.031,521.226,518.9730000000002,0.0
52124.0,STARLINK-3684,PAYLOAD,2022-06-10 00:00:00,15.15163115,0.0001525,53.2177,103.4634,51.0846,283.2108,-0.040888,-0.0072274,0.0,0 STARLINK-3684,1 52124U 22029AN  22161.00001157 -.00722740  00000-0 -40888-1 0  9998,2 52124  53.2177 103.4634 0001525  51.0846 283.2108 15.15163115 14153,6898.62,95.039,521.5369999999998,519.433,0.0
52124.0,STARLINK-3684,PAYLOAD,2022-06-10 14:00:01,15.14271209,0.0001505,53.2175,100.8242,57.6771,219.2582,-0.042005,-0.00723823,0.0,0 STARLINK-3684,1 52124U 22029AN  22161.58334491 -.00723823  00000-0 -42005-1 0  9997,2 52124  53.2175 100.8242 0001505  57.6771 219.2582 15.14271209  1305,6901.329000000002,95.095,524.2330000000002,522.155,0.0
52124.0,STARLINK-3684,PAYLOAD,2022-06-10 22:00:00,15.13760373,0.0001652,53.2177,99.3185,48.3223,246.4215,-0.042504,-0.00722052,0.0,0 STARLINK-3684,1 52124U 22029AN  22161.91667824 -.00722052  00000-0 -42504-1 0  9990,2 52124  53.2177  99.3185 0001652  48.3223 246.4215 15.13760373  1306,6902.882,95.127,525.887,523.606,0.0
52124.0,STARLINK-3684,PAYLOAD,2022-06-11 06:00:00,15.13248652,0.0001453,53.2175,97.8153,58.6578,253.2815,-0.042918,-0.0071884,0.0,0 STARLINK-3684,1 52124U 22029AN  22162.25001157 -.00718840  00000-0 -42918-1 0  9998,2 52124  53.2175  97.8153 0001453  58.6578 253.2815 15.13248652 14349,6904.438,95.16,527.306,525.299,0.0
52124.0,STARLINK-3684,PAYLOAD,2022-06-11 22:00:00,15.12230836,0.0001536,53.2177,94.8081,48.8542,295.6385,-0.044422,-0.00722769,0.0,0 STARLINK-3684,1 52124U 22029AN  22162.91667824 -.00722769  00000-0 -44422-1 0  9997,2 52124  53.2177  94.8081 0001536  48.8542 295.6385 15.12230836  1300,6907.535,95.224,530.461,528.339,0.0
52124.0,STARLINK-3684,PAYLOAD,2022-06-12 06:00:02,15.11718748,0.0001495,53.2175,93.3082,49.9852,309.9279,-0.044808,-0.00718946,0.0,0 STARLINK-3684,1 52124U 22029AN  22163.25002315 -.00718946  00000-0 -44808-1 0  9993,2 52124  53.2175  93.3082 0001495  49.9852 309.9279 15.11718748 14502,6909.095,95.256,531.993,529.927,0.0
52124.0,STARLINK-3684,PAYLOAD,2022-06-12 14:00:01,15.11209869,0.0001401,53.2175,91.8066,54.7044,319.8914,-0.045635,-0.00721678,0.0,0 STARLINK-3684,1 52124U 22029AN  22163.58334491 -.00721678  00000-0 -45635-1 0  9997,2 52124  53.2175  91.8066 0001401  54.7044 319.8914 15.11209869  1300,6910.646,95.288,533.479,531.543,0.0
52124.0,STARLINK-3684,PAYLOAD,2022-06-12 22:00:00,15.107011300000002,0.0001559,53.2176,90.3083,46.9278,341.7988,-0.046399,-0.00723338,0.0,0 STARLINK-3684,1 52124U 22029AN  22163.91667824 -.00723338  00000-0 -46399-1 0  9996,2 52124  53.2176  90.3083 0001559  46.9278 341.7988 15.10701130  1302,6912.198,95.32,535.14,532.985,0.0
52124.0,STARLINK-3684,PAYLOAD,2022-06-13 06:00:02,15.10188512,0.0001513,53.2174,88.8119,48.8737,353.4352,-0.046725,-0.00718476,0.0,0 STARLINK-3684,1 52124U 22029AN  22164.25002315 -.00718476  00000-0 -46725-1 0  9992,2 52124  53.2174  88.8119 0001513  48.8737 353.4352 15.10188512 14653,6913.762,95.352,536.673,534.581,0.0
52124.0,STARLINK-3684,PAYLOAD,2022-06-13 14:00:01,15.0968027,0.0001515,53.2175,87.3133,48.2,6.9534,-0.047702,-0.00722924,0.0,0 STARLINK-3684,1 52124U 22029AN  22164.58334491 -.00722924  00000-0 -47702-1 0  9990,2 52124  53.2175  87.3133 0001515  48.2000   6.9534 15.09680270  1309,6915.313,95.384,538.226,536.131,0.0
52124.0,STARLINK-3684,PAYLOAD,2022-06-13 22:00:00,15.09032881,0.0001496,53.2175,85.8175,56.283,11.1867,-0.018389,-0.00283125,0.0,0 STARLINK-3684,1 52124U 22029AN  22164.91667824 -.00283125  00000-0 -18389-1 0  9990,2 52124  53.2175  85.8175 0001496  56.2830  11.1867 15.09032881  1302,6917.291,95.425,540.191,538.121,0.0
52124.0,STARLINK-3684,PAYLOAD,2022-06-14 14:00:01,15.08836584,0.0001513,53.2174,82.8243,52.7498,38.0121,2.8113000000000014e-05,1.59e-06,0.0,0 STARLINK-3684,1 52124U 22029AN  22165.58334491  .00000159  00000-0  28113-4 0  9996,2 52124  53.2174  82.8243 0001513  52.7498  38.0121 15.08836584  1307,6917.891,95.438,540.803,538.7090000000002,0.0
52124.0,STARLINK-3684,PAYLOAD,2022-06-14 22:00:00,15.08903645,0.0001518,53.2158,81.3192,51.048,51.4455,-0.0041994,-0.00066619,0.0,0 STARLINK-3684,1 52124U 22029AN  22165.91667824 -.00066619  00000-0 -41994-2 0  9997,2 52124  53.2158  81.3192 0001518  51.0480  51.4455 15.08903645 14906,6917.686,95.434,540.601,538.501,0.0
52124.0,STARLINK-3684,PAYLOAD,2022-06-15 14:00:01,15.08830996,0.0001523,53.216,78.3256,54.124,71.6311,-0.00032006,-5.377e-05,0.0,0 STARLINK-3684,1 52124U 22029AN  22166.58334491 -.00005377  00000-0 -32006-3 0  9991,2 52124  53.2160  78.3256 0001523  54.1240  71.6311 15.08830996 15005,6917.908,95.438,540.827,538.719,0.0
52124.0,STARLINK-3684,PAYLOAD,2022-06-15 22:00:00,15.08842195,0.0001604,53.2162,76.8301,53.2243,84.1144,-0.00086349,-0.00014005,0.0,0 STARLINK-3684,1 52124U 22029AN  22166.91667824 -.00014005  00000-0 -86349-3 0  9994,2 52124  53.2162  76.8301 0001604  53.2243  84.1144 15.08842195  1309,6917.874,95.437,540.8480000000002,538.629,0.0
52124.0,STARLINK-3684,PAYLOAD,2022-06-16 02:00:01,15.08830015,0.0001728,53.2162,76.0828,50.2807,272.8587,0.0013153,0.00020701,0.0,0 STARLINK-3684,1 52124U 22029AN  22167.08334491  .00020701  00000-0  13153-2 0  9994,2 52124  53.2162  76.0828 0001728  50.2807 272.8587 15.08830015  1300,6917.911,95.438,540.971,538.58,0.0
52124.0,STARLINK-3684,PAYLOAD,2022-06-19 14:00:01,15.08812987,0.0001621,53.2155,60.3684,62.9339,201.883,0.0024892,0.00039521,0.0,0 STARLINK-3684,1 52124U 22029AN  22170.58334491  .00039521  00000-0  24892-2 0  9995,2 52124  53.2155  60.3684 0001621  62.9339 201.8830 15.08812987  1301,6917.9630000000025,95.439,540.9490000000002,538.707,0.0
52124.0,STARLINK-3684,PAYLOAD,2022-06-19 20:00:01,15.08848848,0.0001665999999999,53.2158,59.2471,61.6266,121.8685,-0.001022,-0.0001652,0.0,0 STARLINK-3684,1 52124U 22029AN  22170.83334491 -.00016520  00000-0 -10220-2 0  9999,2 52124  53.2158  59.2471 0001666  61.6266 121.8685 15.08848848 15645,6917.853,95.437,540.871,538.566,0.0
52124.0,STARLINK-3684,PAYLOAD,2022-06-19 22:00:00,15.08843515,0.0001706999999999,53.2155,58.8735,59.044,217.3526,-0.00053813,-8.843e-05,0.0,0 STARLINK-3684,1 52124U 22029AN  22170.91667824 -.00008843  00000-0 -53813-3 0  9992,2 52124  53.2155  58.8735 0001707  59.0440 217.3526 15.08843515  1300,6917.87,95.437,540.9159999999998,538.554,0.0
52124.0,STARLINK-3684,PAYLOAD,2022-06-20 14:00:01,15.08807056,0.0001534,53.2152,55.879,62.4951,237.1004,0.0029285,0.00046585,0.0,0 STARLINK-3684,1 52124U 22029AN  22171.58334491  .00046585  00000-0  29285-2 0  9995,2 52124  53.2152  55.8790 0001534  62.4951 237.1004 15.08807056  1309,6917.981,95.44,540.9069999999998,538.785,0.0
52124.0,STARLINK-3684,PAYLOAD,2022-06-20 22:00:00,15.08841118,0.0001665,53.2153,54.3842,57.8373,253.3286,-0.00052548,-8.642e-05,0.0,0 STARLINK-3684,1 52124U 22029AN  22171.91667824 -.00008642  00000-0 -52548-3 0  9994,2 52124  53.2153  54.3842 0001665  57.8373 253.3286 15.08841118 15802,6917.877,95.437,540.894,538.59,0.0
52124.0,STARLINK-3684,PAYLOAD,2022-06-21 14:00:01,15.08811953,0.0001496999999999,53.2154,51.3896,61.2643,273.1122,0.0025457,0.00040428,0.0,0 STARLINK-3684,1 52124U 22029AN  22172.58334491  .00040428  00000-0  25457-2 0  9993,2 52124  53.2154  51.3896 0001497  61.2643 273.1122 15.08811953  1304,6917.965999999999,95.439,540.867,538.795,0.0
52124.0,STARLINK-3684,PAYLOAD,2022-06-21 22:00:00,15.08839206,0.0001639,53.2155,49.895,55.4475,290.485,-0.00053577,-8.805e-05,0.0,0 STARLINK-3684,1 52124U 22029AN  22172.91667824 -.00008805  00000-0 -53577-3 0  9999,2 52124  53.2155  49.8950 0001639  55.4475 290.4850 15.08839206  1305,6917.8830000000025,95.438,540.882,538.614,0.0
52124.0,STARLINK-3684,PAYLOAD,2022-06-22 00:00:02,15.088285,0.0001668,53.2157,49.5211,54.4036,24.4921,0.0010779,0.00016903,0.0,0 STARLINK-3684,1 52124U 22029AN  22173.00002315  .00016903  00000-0  10779-2 0  9990,2 52124  53.2157  49.5211 0001668  54.4036  24.4921 15.08828500 15975,6917.916,95.438,540.934,538.627,0.0
52124.0,STARLINK-3684,PAYLOAD,2022-06-22 14:00:01,15.08813099,0.0001447,53.2158,46.9004,58.9536,310.1837,0.0025508,0.00040512,0.0,0 STARLINK-3684,1 52124U 22029AN  22173.58334491  .00040512  00000-0  25508-2 0  9995,2 52124  53.2158  46.9004 0001447  58.9536 310.1837 15.08813099  1306,6917.9630000000025,95.439,540.8290000000002,538.827,0.0
52124.0,STARLINK-3684,PAYLOAD,2022-06-22 22:00:00,15.08838355,0.0001626,53.216,45.4058,53.0192,327.695,-0.00040364,-6.706e-05,0.0,0 STARLINK-3684,1 52124U 22029AN  22173.91667824 -.00006706  00000-0 -40364-3 0  9998,2 52124  53.2160  45.4058 0001626  53.0192 327.6950 15.08838355 16111,6917.885,95.438,540.875,538.626,0.0
52124.0,STARLINK-3684,PAYLOAD,2022-06-23 14:00:01,15.08808629,0.0001614,53.2165,42.4113,61.0887,342.8091,0.0029714,0.00047279,0.0,0 STARLINK-3684,1 52124U 22029AN  22174.58334491  .00047279  00000-0  29714-2 0  9996,2 52124  53.2165  42.4113 0001614  61.0887 342.8091 15.08808629  1303,6917.976,95.44,540.9580000000002,538.725,0.0
52124.0,STARLINK-3684,PAYLOAD,2022-06-23 22:00:00,15.08835273,0.000178,53.2166,40.9168,55.7852,359.6876,-0.00035166,-5.88e-05,0.0,0 STARLINK-3684,1 52124U 22029AN  22174.91667824 -.00005880  00000-0 -35166-3 0  9995,2 52124  53.2166  40.9168 0001780  55.7852 359.6876 15.08835273  1305,6917.895,95.438,540.991,538.528,0.0
